[{"OBJECT_NAME":"TIANMU-1 19","OBJECT_ID":"2023-208A","EPOCH":"2026-03-09T22:13:36.801696","MEAN_MOTION":15.2984143,"ECCENTRICITY":0.00039292,"INCLINATION":97.4383,"RA_OF_ASC_NODE":184.9132,"ARG_OF_PERICENTER":316.2611,"MEAN_ANOMALY":43.8317,"EPHEMERIS_TYPE":0,"CLASSIFICATION_TYPE":"U","NORAD_CAT_ID":58660,"ELEMENT_SET_NO":999,"REV_AT_EPOCH":12214,"BSTAR":0.00040995676,"MEAN_MOTION_DOT":0.00011779,"MEAN_MOTION_DDOT":0},{"OBJECT_NAME":"STARLINK-35521","OBJECT_ID":"2025-225G","EPOCH":"2026-03-09T12:51:17.125632","MEAN_MOTION":15.30192825,"ECCENTRICITY":0.00012729,"INCLINATION":53.1593,"RA_OF_ASC_NODE":166.4577,"ARG_OF_PERICENTER":78.6148,"MEAN_ANOMALY":281.4996,"EPHEMERIS_TYPE":0,"CLASSIFICATION_TYPE":"U","NORAD_CAT_ID":65916,"ELEMENT_SET_NO":999,"REV_AT_EPOCH":2438,"BSTAR":0.00069808367,"MEAN_MOTION_DOT":0.00020368,"MEAN_MOTION_DDOT":0}]
